[{"OBJECT_NAME":"SL-14 R/B","OBJECT_ID":"1986-006B","EPOCH":"2026-03-06T00:29:58.504992","MEAN_MOTION":14.8680864,"ECCENTRICITY":0.00751226,"INCLINATION":82.5233,"RA_OF_ASC_NODE":263.1912,"ARG_OF_PERICENTER":285.2217,"MEAN_ANOMALY":74.0702,"EPHEMERIS_TYPE":0,"CLASSIFICATION_TYPE":"U","NORAD_CAT_ID":16496,"ELEMENT_SET_NO":999,"REV_AT_EPOCH":14866,"BSTAR":7.4582639e-5,"MEAN_MOTION_DOT":7.25e-6,"MEAN_MOTION_DDOT":0},{"OBJECT_NAME":"COSMOS 1743","OBJECT_ID":"1986-034A","EPOCH":"2026-03-06T07:16:30.571104","MEAN_MOTION":15.58271388,"ECCENTRICITY":0.00019037,"INCLINATION":82.5295,"RA_OF_ASC_NODE":77.3847,"ARG_OF_PERICENTER":320.621,"MEAN_ANOMALY":39.4907,"EPHEMERIS_TYPE":0,"CLASSIFICATION_TYPE":"U","NORAD_CAT_ID":16719,"ELEMENT_SET_NO":999,"REV_AT_EPOCH":17972,"BSTAR":0.00051578928,"MEAN_MOTION_DOT":0.00039175,"MEAN_MOTION_DDOT":0},{"OBJECT_NAME":"SL-14 R/B","OBJECT_ID":"1986-046B","EPOCH":"2026-03-06T02:28:01.484544","MEAN_MOTION":14.85585901,"ECCENTRICITY":0.00217674,"INCLINATION":82.4782,"RA_OF_ASC_NODE":83.572,"ARG_OF_PERICENTER":237.894,"MEAN_ANOMALY":122.0164,"EPHEMERIS_TYPE":0,"CLASSIFICATION_TYPE":"U","NORAD_CAT_ID":16792,"ELEMENT_SET_NO":999,"REV_AT_EPOCH":12587,"BSTAR":5.9679211e-5,"MEAN_MOTION_DOT":5.42e-6,"MEAN_MOTION_DDOT":0},{"OBJECT_NAME":"SL-14 R/B","OBJECT_ID":"1986-055B","EPOCH":"2026-03-06T10:13:04.038816","MEAN_MOTION":14.85639349,"ECCENTRICITY":0.00184551,"INCLINATION":82.5207,"RA_OF_ASC_NODE":129.742,"ARG_OF_PERICENTER":347.6741,"MEAN_ANOMALY":22.7388,"EPHEMERIS_TYPE":0,"CLASSIFICATION_TYPE":"U","NORAD_CAT_ID":16882,"ELEMENT_SET_NO":999,"REV_AT_EPOCH":11888,"BSTAR":6.7364165e-5,"MEAN_MOTION_DOT":6.09e-6,"MEAN_MOTION_DDOT":0},{"OBJECT_NAME":"AJISAI (EGS)","OBJECT_ID":"1986-061A","EPOCH":"2026-03-06T15:38:25.272096","MEAN_MOTION":12.4451563,"ECCENTRICITY":0.00112558,"INCLINATION":50.008,"RA_OF_ASC_NODE":102.69,"ARG_OF_PERICENTER":279.1973,"MEAN_ANOMALY":95.6768,"EPHEMERIS_TYPE":0,"CLASSIFICATION_TYPE":"U","NORAD_CAT_ID":16908,"ELEMENT_SET_NO":999,"REV_AT_EPOCH":46762,"BSTAR":9.1077876e-5,"MEAN_MOTION_DOT":-8.4e-7,"MEAN_MOTION_DDOT":0},{"OBJECT_NAME":"COSMOS 1812","OBJECT_ID":"1987-003A","EPOCH":"2026-03-06T03:08:00.778848","MEAN_MOTION":16.49575463,"ECCENTRICITY":0.0011771,"INCLINATION":82.4628,"RA_OF_ASC_NODE":199.5909,"ARG_OF_PERICENTER":272.0058,"MEAN_ANOMALY":87.9898,"EPHEMERIS_TYPE":0,"CLASSIFICATION_TYPE":"U","NORAD_CAT_ID":17295,"ELEMENT_SET_NO":999,"REV_AT_EPOCH":14391,"BSTAR":0.00014058925,"MEAN_MOTION_DOT":0.12040831,"MEAN_MOTION_DDOT":-1.282894e-6},{"OBJECT_NAME":"SL-14 R/B","OBJECT_ID":"1987-024B","EPOCH":"2026-03-06T01:41:03.130368","MEAN_MOTION":14.86127647,"ECCENTRICITY":0.00166686,"INCLINATION":82.525,"RA_OF_ASC_NODE":96.1667,"ARG_OF_PERICENTER":273.0237,"MEAN_ANOMALY":86.9072,"EPHEMERIS_TYPE":0,"CLASSIFICATION_TYPE":"U","NORAD_CAT_ID":17567,"ELEMENT_SET_NO":999,"REV_AT_EPOCH":8759,"BSTAR":5.6139939e-5,"MEAN_MOTION_DOT":5.17e-6,"MEAN_MOTION_DDOT":0},{"OBJECT_NAME":"COSMOS 1833","OBJECT_ID":"1987-027A","EPOCH":"2026-03-06T11:05:49.200000","MEAN_MOTION":14.13055581,"ECCENTRICITY":0.00244237,"INCLINATION":70.923,"RA_OF_ASC_NODE":332.8013,"ARG_OF_PERICENTER":219.033,"MEAN_ANOMALY":140.903,"EPHEMERIS_TYPE":0,"CLASSIFICATION_TYPE":"U","NORAD_CAT_ID":17589,"ELEMENT_SET_NO":999,"REV_AT_EPOCH":986,"BSTAR":-4.8977589e-5,"MEAN_MOTION_DOT":-1.4e-6,"MEAN_MOTION_DDOT":0},{"OBJECT_NAME":"SL-16 R/B","OBJECT_ID":"1987-027B","EPOCH":"2026-03-06T00:31:31.421280","MEAN_MOTION":14.17165768,"ECCENTRICITY":0.00035861,"INCLINATION":71.0014,"RA_OF_ASC_NODE":284.2247,"ARG_OF_PERICENTER":150.8635,"MEAN_ANOMALY":209.269,"EPHEMERIS_TYPE":0,"CLASSIFICATION_TYPE":"U","NORAD_CAT_ID":17590,"ELEMENT_SET_NO":999,"REV_AT_EPOCH":1482,"BSTAR":-4.4720913e-5,"MEAN_MOTION_DOT":-1.38e-6,"MEAN_MOTION_DDOT":0},{"OBJECT_NAME":"SL-14 R/B","OBJECT_ID":"1987-038B","EPOCH":"2026-03-06T03:08:08.318976","MEAN_MOTION":14.85365319,"ECCENTRICITY":0.00193797,"INCLINATION":82.5007,"RA_OF_ASC_NODE":300.1608,"ARG_OF_PERICENTER":171.981,"MEAN_ANOMALY":188.172,"EPHEMERIS_TYPE":0,"CLASSIFICATION_TYPE":"U","NORAD_CAT_ID":17912,"ELEMENT_SET_NO":999,"REV_AT_EPOCH":7870,"BSTAR":5.7062255e-5,"MEAN_MOTION_DOT":5.17e-6,"MEAN_MOTION_DDOT":0},{"OBJECT_NAME":"COSMOS 1844","OBJECT_ID":"1987-041A","EPOCH":"2026-03-06T08:37:44.627520","MEAN_MOTION":14.14552969,"ECCENTRICITY":0.00298135,"INCLINATION":70.8996,"RA_OF_ASC_NODE":41.1989,"ARG_OF_PERICENTER":22.7812,"MEAN_ANOMALY":337.4624,"EPHEMERIS_TYPE":0,"CLASSIFICATION_TYPE":"U","NORAD_CAT_ID":17973,"ELEMENT_SET_NO":999,"REV_AT_EPOCH":311,"BSTAR":-3.277016e-5,"MEAN_MOTION_DOT":-1.12e-6,"MEAN_MOTION_DDOT":0},{"OBJECT_NAME":"SL-14 R/B","OBJECT_ID":"1987-055B","EPOCH":"2026-03-06T07:26:47.810112","MEAN_MOTION":14.85624829,"ECCENTRICITY":0.00214344,"INCLINATION":82.503,"RA_OF_ASC_NODE":352.2153,"ARG_OF_PERICENTER":28.6582,"MEAN_ANOMALY":331.5807,"EPHEMERIS_TYPE":0,"CLASSIFICATION_TYPE":"U","NORAD_CAT_ID":18153,"ELEMENT_SET_NO":999,"REV_AT_EPOCH":6943,"BSTAR":8.9413072e-5,"MEAN_MOTION_DOT":8.01e-6,"MEAN_MOTION_DDOT":0},{"OBJECT_NAME":"COSMOS 1867","OBJECT_ID":"1987-060A","EPOCH":"2026-03-06T02:06:35.933760","MEAN_MOTION":14.31502415,"ECCENTRICITY":0.00144485,"INCLINATION":65.0117,"RA_OF_ASC_NODE":316.792,"ARG_OF_PERICENTER":278.4415,"MEAN_ANOMALY":81.5032,"EPHEMERIS_TYPE":0,"CLASSIFICATION_TYPE":"U","NORAD_CAT_ID":18187,"ELEMENT_SET_NO":999,"REV_AT_EPOCH":1942,"BSTAR":3.4236855e-5,"MEAN_MOTION_DOT":-9.0e-8,"MEAN_MOTION_DDOT":0},{"OBJECT_NAME":"SL-14 R/B","OBJECT_ID":"1988-001B","EPOCH":"2026-03-06T15:24:39.894624","MEAN_MOTION":14.85523654,"ECCENTRICITY":0.00166852,"INCLINATION":82.5147,"RA_OF_ASC_NODE":198.2257,"ARG_OF_PERICENTER":246.554,"MEAN_ANOMALY":113.3923,"EPHEMERIS_TYPE":0,"CLASSIFICATION_TYPE":"U","NORAD_CAT_ID":18749,"ELEMENT_SET_NO":999,"REV_AT_EPOCH":4157,"BSTAR":9.5623698e-5,"MEAN_MOTION_DOT":8.51e-6,"MEAN_MOTION_DDOT":0},{"OBJECT_NAME":"COSMOS 1933","OBJECT_ID":"1988-020A","EPOCH":"2026-03-05T23:12:08.885664","MEAN_MOTION":15.17942396,"ECCENTRICITY":0.00035303,"INCLINATION":82.5097,"RA_OF_ASC_NODE":254.5962,"ARG_OF_PERICENTER":196.2734,"MEAN_ANOMALY":163.8387,"EPHEMERIS_TYPE":0,"CLASSIFICATION_TYPE":"U","NORAD_CAT_ID":18958,"ELEMENT_SET_NO":999,"REV_AT_EPOCH":4966,"BSTAR":0.00024225826,"MEAN_MOTION_DOT":4.946e-5,"MEAN_MOTION_DDOT":0},{"OBJECT_NAME":"SL-3 R/B","OBJECT_ID":"1988-032B","EPOCH":"2026-03-06T13:44:16.328544","MEAN_MOTION":15.19865179,"ECCENTRICITY":0.00242538,"INCLINATION":97.5191,"RA_OF_ASC_NODE":48.8342,"ARG_OF_PERICENTER":243.1555,"MEAN_ANOMALY":116.72,"EPHEMERIS_TYPE":0,"CLASSIFICATION_TYPE":"U","NORAD_CAT_ID":19046,"ELEMENT_SET_NO":999,"REV_AT_EPOCH":5163,"BSTAR":0.00035586121,"MEAN_MOTION_DOT":7.625e-5,"MEAN_MOTION_DDOT":0},{"OBJECT_NAME":"SL-16 R/B","OBJECT_ID":"1988-039B","EPOCH":"2026-03-06T09:16:51.711168","MEAN_MOTION":14.19615621,"ECCENTRICITY":0.00225849,"INCLINATION":71.0131,"RA_OF_ASC_NODE":75.5323,"ARG_OF_PERICENTER":339.1784,"MEAN_ANOMALY":20.8419,"EPHEMERIS_TYPE":0,"CLASSIFICATION_TYPE":"U","NORAD_CAT_ID":19120,"ELEMENT_SET_NO":999,"REV_AT_EPOCH":95791,"BSTAR":-3.8618404e-5,"MEAN_MOTION_DOT":-1.3e-6,"MEAN_MOTION_DDOT":0}]
